[{"OBJECT_NAME":"SHENZHOU-22","OBJECT_ID":"2025-272A","EPOCH":"2026-03-14T00:03:53.258400","MEAN_MOTION":15.6090469,"ECCENTRICITY":0.0006689,"INCLINATION":41.4663,"RA_OF_ASC_NODE":181.9138,"ARG_OF_PERICENTER":299.3968,"MEAN_ANOMALY":60.6202,"EPHEMERIS_TYPE":0,"CLASSIFICATION_TYPE":"U","NORAD_CAT_ID":66645,"ELEMENT_SET_NO":999,"REV_AT_EPOCH":26752,"BSTAR":0.00034787289,"MEAN_MOTION_DOT":0.00029757,"MEAN_MOTION_DDOT":0},{"OBJECT_NAME":"SOYUZ-MS 28","OBJECT_ID":"2025-275A","EPOCH":"2026-03-15T04:37:08.870592","MEAN_MOTION":15.48288531,"ECCENTRICITY":0.00063636,"INCLINATION":51.633,"RA_OF_ASC_NODE":45.1519,"ARG_OF_PERICENTER":192.7288,"MEAN_ANOMALY":167.354,"EPHEMERIS_TYPE":0,"CLASSIFICATION_TYPE":"U","NORAD_CAT_ID":66664,"ELEMENT_SET_NO":999,"REV_AT_EPOCH":55452,"BSTAR":0.0001887181,"MEAN_MOTION_DOT":9.711e-5,"MEAN_MOTION_DDOT":0},{"OBJECT_NAME":"DUPLEX","OBJECT_ID":"1998-067XS","EPOCH":"2026-03-15T04:07:58.930176","MEAN_MOTION":15.56607115,"ECCENTRICITY":0.00027512,"INCLINATION":51.6292,"RA_OF_ASC_NODE":42.019,"ARG_OF_PERICENTER":137.6554,"MEAN_ANOMALY":222.465,"EPHEMERIS_TYPE":0,"CLASSIFICATION_TYPE":"U","NORAD_CAT_ID":66906,"ELEMENT_SET_NO":999,"REV_AT_EPOCH":1598,"BSTAR":0.00047618778,"MEAN_MOTION_DOT":0.00034193,"MEAN_MOTION_DDOT":0},{"OBJECT_NAME":"ISS OBJECT XT","OBJECT_ID":"1998-067XT","EPOCH":"2026-03-15T01:21:01.873152","MEAN_MOTION":15.71174897,"ECCENTRICITY":0.00046884,"INCLINATION":51.6247,"RA_OF_ASC_NODE":38.2251,"ARG_OF_PERICENTER":115.4311,"MEAN_ANOMALY":244.7173,"EPHEMERIS_TYPE":0,"CLASSIFICATION_TYPE":"U","NORAD_CAT_ID":66907,"ELEMENT_SET_NO":999,"REV_AT_EPOCH":1602,"BSTAR":0.0015332922,"MEAN_MOTION_DOT":0.00202137,"MEAN_MOTION_DDOT":0},{"OBJECT_NAME":"ISS OBJECT XU","OBJECT_ID":"1998-067XU","EPOCH":"2026-03-15T01:17:47.256288","MEAN_MOTION":15.71313389,"ECCENTRICITY":0.00049873,"INCLINATION":51.6248,"RA_OF_ASC_NODE":38.2054,"ARG_OF_PERICENTER":118.2627,"MEAN_ANOMALY":241.8875,"EPHEMERIS_TYPE":0,"CLASSIFICATION_TYPE":"U","NORAD_CAT_ID":66908,"ELEMENT_SET_NO":999,"REV_AT_EPOCH":1602,"BSTAR":0.0015284504,"MEAN_MOTION_DOT":0.00202702,"MEAN_MOTION_DDOT":0},{"OBJECT_NAME":"SILVERSAT","OBJECT_ID":"1998-067XV","EPOCH":"2026-03-15T04:06:59.070528","MEAN_MOTION":15.74772085,"ECCENTRICITY":0.00054443,"INCLINATION":51.6239,"RA_OF_ASC_NODE":36.7379,"ARG_OF_PERICENTER":117.7755,"MEAN_ANOMALY":242.3797,"EPHEMERIS_TYPE":0,"CLASSIFICATION_TYPE":"U","NORAD_CAT_ID":66909,"ELEMENT_SET_NO":999,"REV_AT_EPOCH":1605,"BSTAR":0.00171494,"MEAN_MOTION_DOT":0.0026581,"MEAN_MOTION_DDOT":0},{"OBJECT_NAME":"ISS OBJECT XW","OBJECT_ID":"1998-067XW","EPOCH":"2026-03-15T04:20:34.782432","MEAN_MOTION":15.70370803,"ECCENTRICITY":0.00053536,"INCLINATION":51.6239,"RA_OF_ASC_NODE":37.5499,"ARG_OF_PERICENTER":120.8061,"MEAN_ANOMALY":239.3464,"EPHEMERIS_TYPE":0,"CLASSIFICATION_TYPE":"U","NORAD_CAT_ID":66910,"ELEMENT_SET_NO":999,"REV_AT_EPOCH":1604,"BSTAR":0.0013629257,"MEAN_MOTION_DOT":0.00173075,"MEAN_MOTION_DDOT":0},{"OBJECT_NAME":"ISS OBJECT XX","OBJECT_ID":"1998-067XX","EPOCH":"2026-03-15T03:45:13.776480","MEAN_MOTION":15.78660751,"ECCENTRICITY":0.00069062,"INCLINATION":51.6207,"RA_OF_ASC_NODE":35.8642,"ARG_OF_PERICENTER":121.9057,"MEAN_ANOMALY":238.2617,"EPHEMERIS_TYPE":0,"CLASSIFICATION_TYPE":"U","NORAD_CAT_ID":66911,"ELEMENT_SET_NO":999,"REV_AT_EPOCH":1605,"BSTAR":0.001815978,"MEAN_MOTION_DOT":0.0033734,"MEAN_MOTION_DDOT":0},{"OBJECT_NAME":"ISS OBJECT XY","OBJECT_ID":"1998-067XY","EPOCH":"2026-03-14T22:45:17.273376","MEAN_MOTION":15.6480189,"ECCENTRICITY":0.00034365,"INCLINATION":51.6268,"RA_OF_ASC_NODE":40.5165,"ARG_OF_PERICENTER":120.1038,"MEAN_ANOMALY":240.0298,"EPHEMERIS_TYPE":0,"CLASSIFICATION_TYPE":"U","NORAD_CAT_ID":66912,"ELEMENT_SET_NO":999,"REV_AT_EPOCH":1597,"BSTAR":0.0011443978,"MEAN_MOTION_DOT":0.00114837,"MEAN_MOTION_DDOT":0},{"OBJECT_NAME":"KNACKSAT-2","OBJECT_ID":"1998-067XZ","EPOCH":"2026-03-15T04:48:46.736352","MEAN_MOTION":15.52323412,"ECCENTRICITY":0.00095785,"INCLINATION":51.6309,"RA_OF_ASC_NODE":44.4573,"ARG_OF_PERICENTER":205.3064,"MEAN_ANOMALY":154.7457,"EPHEMERIS_TYPE":0,"CLASSIFICATION_TYPE":"U","NORAD_CAT_ID":67683,"ELEMENT_SET_NO":999,"REV_AT_EPOCH":564,"BSTAR":0.0007682884,"MEAN_MOTION_DOT":0.00047534,"MEAN_MOTION_DDOT":0},{"OBJECT_NAME":"GXIBA-1","OBJECT_ID":"1998-067YA","EPOCH":"2026-03-15T03:55:34.712544","MEAN_MOTION":15.5530396,"ECCENTRICITY":0.00116134,"INCLINATION":51.6308,"RA_OF_ASC_NODE":44.2101,"ARG_OF_PERICENTER":194.5368,"MEAN_ANOMALY":165.5291,"EPHEMERIS_TYPE":0,"CLASSIFICATION_TYPE":"U","NORAD_CAT_ID":67684,"ELEMENT_SET_NO":999,"REV_AT_EPOCH":564,"BSTAR":0.001289316,"MEAN_MOTION_DOT":0.0008987,"MEAN_MOTION_DDOT":0},{"OBJECT_NAME":"CORAL","OBJECT_ID":"1998-067YB","EPOCH":"2026-03-15T04:40:23.786400","MEAN_MOTION":15.5273969,"ECCENTRICITY":0.00115347,"INCLINATION":51.6319,"RA_OF_ASC_NODE":44.4177,"ARG_OF_PERICENTER":201.7026,"MEAN_ANOMALY":158.3476,"EPHEMERIS_TYPE":0,"CLASSIFICATION_TYPE":"U","NORAD_CAT_ID":67685,"ELEMENT_SET_NO":999,"REV_AT_EPOCH":564,"BSTAR":0.00082450602,"MEAN_MOTION_DOT":0.00051896,"MEAN_MOTION_DDOT":0},{"OBJECT_NAME":"ISS OBJECT YC","OBJECT_ID":"1998-067YC","EPOCH":"2026-03-15T04:29:24.271008","MEAN_MOTION":15.53399872,"ECCENTRICITY":0.0008363,"INCLINATION":51.6317,"RA_OF_ASC_NODE":44.3691,"ARG_OF_PERICENTER":170.9974,"MEAN_ANOMALY":189.1167,"EPHEMERIS_TYPE":0,"CLASSIFICATION_TYPE":"U","NORAD_CAT_ID":67686,"ELEMENT_SET_NO":999,"REV_AT_EPOCH":564,"BSTAR":0.00096936281,"MEAN_MOTION_DOT":0.00062587,"MEAN_MOTION_DDOT":0},{"OBJECT_NAME":"LEOPARD","OBJECT_ID":"1998-067YD","EPOCH":"2026-03-15T06:17:08.114208","MEAN_MOTION":15.52527164,"ECCENTRICITY":0.00081426,"INCLINATION":51.6313,"RA_OF_ASC_NODE":44.1193,"ARG_OF_PERICENTER":174.4595,"MEAN_ANOMALY":185.6486,"EPHEMERIS_TYPE":0,"CLASSIFICATION_TYPE":"U","NORAD_CAT_ID":67687,"ELEMENT_SET_NO":999,"REV_AT_EPOCH":557,"BSTAR":0.00076143322,"MEAN_MOTION_DOT":0.0004743,"MEAN_MOTION_DDOT":0},{"OBJECT_NAME":"ISS OBJECT YE","OBJECT_ID":"1998-067YE","EPOCH":"2026-03-15T04:34:24.545568","MEAN_MOTION":15.53094941,"ECCENTRICITY":0.00082552,"INCLINATION":51.6315,"RA_OF_ASC_NODE":44.3921,"ARG_OF_PERICENTER":171.8524,"MEAN_ANOMALY":188.2602,"EPHEMERIS_TYPE":0,"CLASSIFICATION_TYPE":"U","NORAD_CAT_ID":67688,"ELEMENT_SET_NO":999,"REV_AT_EPOCH":556,"BSTAR":0.00089872899,"MEAN_MOTION_DOT":0.00057311,"MEAN_MOTION_DDOT":0},{"OBJECT_NAME":"CREW DRAGON 12","OBJECT_ID":"2026-031A","EPOCH":"2026-03-15T04:37:08.870592","MEAN_MOTION":15.48288531,"ECCENTRICITY":0.00063636,"INCLINATION":51.633,"RA_OF_ASC_NODE":45.1519,"ARG_OF_PERICENTER":192.7288,"MEAN_ANOMALY":167.354,"EPHEMERIS_TYPE":0,"CLASSIFICATION_TYPE":"U","NORAD_CAT_ID":67796,"ELEMENT_SET_NO":999,"REV_AT_EPOCH":55708,"BSTAR":0.0001887181,"MEAN_MOTION_DOT":9.711e-5,"MEAN_MOTION_DDOT":0}]
